KUIPER-00044            
1 64505U 25134F   25361.83087434  .00002973  00000+0  41862-3 0  9993
2 64505  51.8988 204.3537 0012072  38.5461 321.6362 14.79946940 29247
KUIPER-00046            
1 64506U 25134G   25362.29140648  .00004099  00000+0  55546-3 0  9997
2 64506  51.8978 198.6123 0013071  48.6717 311.5369 14.80734096 29366
KUIPER-00047            
1 64507U 25134H   25362.33335648  .00024166  00000+0  32045-2 0  9994
2 64507  51.8975 169.9355 0001256 170.2818 233.0430 14.79709576  4518
KUIPER-00048            
1 64508U 25134J   25362.20249827  .00004248  00000+0  58567-3 0  9991
2 64508  51.8984 171.7001 0002560 183.3439 176.7507 14.79948081 29736
KUIPER-00049            
1 64509U 25134K   25362.25492238  .00004021  00000+0  55596-3 0  9991
2 64509  51.8989 184.9387 0003087  63.3941 296.7337 14.79945842 29551
KUIPER-00050            
1 64510U 25134L   25362.20193977  .00005705  00000+0  51500-3 0  9997
2 64510  51.8882 176.7995 0005022  84.2291 275.9251 14.96791759 29661
KUIPER-00051            
1 64511U 25134M   25361.85251632  .00003532  00000+0  49213-3 0  9995
2 64511  51.8997 184.2869 0003154  68.0303 292.0994 14.79933856 29527
KUIPER-00052            
1 64512U 25134N   25362.00002315  .00056363  00000+0  37619-3 0  9993
2 64512  51.8592 116.8864 0001602 119.4709 176.0164 15.74786261  5821
